ONEWEB-0603             
1 54667U 22166AB  23301.90284914  .00000011  00000+0 -48813-5 0  9992
2 54667  87.9221  75.5413 0002235 101.0612 259.0773 13.21829399 44353
ONEWEB-0604             
1 54668U 22166AC  23301.89023465  .00000102  00000+0  21650-3 0  9991
2 54668  87.9213  75.5404 0002291  94.2620 265.8775 13.21828160 44317
ONEWEB-0605             
1 54669U 22166AD  23302.11100770 -.00000095  00000+0 -26196-3 0  9996
2 54669  87.9232  75.5216 0002516 107.0436 253.0974 13.21833404 44887
ONEWEB-0606             
1 54670U 22166AE  23302.13308811  .00000010  00000+0 -62221-5 0  9993
2 54670  87.9220  75.5037 0001372  93.7730 266.3561 13.21828536 44939
ONEWEB-0607             
1 54671U 22166AF  23302.40275256  .00000061  00000+0  11517-3 0  9995
2 54671  87.9216  75.4384 0001979  98.6019 261.5339 13.21823018 44947
ONEWEB-0608             
1 54672U 22166AG  23302.40905868  .00000119  00000+0  25750-3 0  9993
2 54672  87.9224  75.4422 0002363 107.4191 252.7201 13.21822558 44957
ONEWEB-0610             
1 54673U 22166AH  23302.46582984 -.00000009  00000+0 -53886-4 0  9992
2 54673  87.9225  75.4308 0002224 105.9792 254.1586 13.21821915 44877
ONEWEB-0611             
1 54674U 22166AJ  23301.92964465  .00000099  00000+0  20941-3 0  9993
2 54674  87.9224  75.5397 0001370  81.0106 279.1183 13.21823656 44324
